[
    {
        "Altitude(m)": 611967.1652326264,
        "Argument of Periapsis(deg)": 0.0,
        "Eccentricity": 0.0,
        "Inclination(deg)": 60.0,
        "Latitude(deg)": 59.14012004945279,
        "Longitude(deg)": -13.908095952629807,
        "Mean Anomaly(deg)": -261.8182,
        "RAAN(deg)": 340.00000000000006,
        "Satellite Name": "Test1 1502",
        "Satellite Number": 1502,
        "Semi-Major Axis(m)": 6980739.136638005,
        "Time(s)": 0
    },
    {
        "Altitude(m)": 611934.3656562415,
        "Argument of Periapsis(deg)": 0.00010418945913296404,
        "Eccentricity": 0.0,
        "Inclination(deg)": 60.0,
        "Latitude(deg)": 58.986484046317955,
        "Longitude(deg)": -12.784850609868107,
        "Mean Anomaly(deg)": -261.1980938545382,
        "RAAN(deg)": 339.99957995086027,
        "Satellite Name": "Test1 1502",
        "Satellite Number": 1502,
        "Semi-Major Axis(m)": 6980739.136638005,
        "Time(s)": 10
    }
]